1 08820U 76039A   03136.16809385  .00000014  00000-0  10000-3 0  9175
2 08820 109.8109 170.6424 0044386 308.2438  51.4285  6.38664317375010
